0 COSMOS 2251 DEB
1 38188U 93036BSC 13281.36676103  .00002593  00000-0  96550-3 0  1186
2 38188 074.0177 171.5825 0053567 253.4533 225.1356 14.31737426120517
0 COSMOS 2251 DEB
1 38188U 93036BSC 13283.39400583  .00003020  00000-0  11228-2 0  1193
2 38188 074.0180 167.8824 0053372 249.2457 234.1514 14.31755142120803
0 COSMOS 2251 DEB
1 38188U 93036BSC 13287.01568640  .00003315  00000-0  12312-2 0  1210
2 38188 074.0182 161.2721 0053050 241.7766 181.5486 14.31769478121319
0 COSMOS 2251 DEB
1 38188U 93036BSC 13288.97180792  .00003982  00000-0  14763-2 0  1227
2 38188 074.0176 157.7014 0052881 237.7418 184.1816 14.31785980121599
0 COSMOS 2251 DEB
1 38188U 93036BSC 13290.02117137  .00003719  00000-0  13797-2 0  1234
2 38188 074.0172 155.7860 0052792 235.5246 193.1197 14.31791544121751
0 COSMOS 2251 DEB
1 38188U 93036BSC 13292.04811439  .00003670  00000-0  13614-2 0  1249
2 38188 074.0167 152.0860 0052643 231.2500 201.0507 14.31804347122049
0 COSMOS 2251 DEB
1 38188U 93036BSC 13293.31502869  .00003910  00000-0  14494-2 0  1259
2 38188 074.0166 149.7733 0052542 228.6219 251.3941 14.31812647122227
0 COSMOS 2251 DEB
1 38188U 93036BSC 13295.27153997  .00004343  00000-0  16085-2 0  1260
2 38188 074.0168 146.2023 0052448 224.5736 256.3499 14.31825226122508
